[{"OBJECT_NAME":"HULIANWANG DIGUI-113","OBJECT_ID":"2025-285J","EPOCH":"2026-03-05T06:52:36.059808","MEAN_MOTION":13.29330853,"ECCENTRICITY":8.69e-6,"INCLINATION":50.0098,"RA_OF_ASC_NODE":158.3061,"ARG_OF_PERICENTER":304.2863,"MEAN_ANOMALY":55.8001,"EPHEMERIS_TYPE":0,"CLASSIFICATION_TYPE":"U","NORAD_CAT_ID":66923,"ELEMENT_SET_NO":999,"REV_AT_EPOCH":1224,"BSTAR":-0.00018542468,"MEAN_MOTION_DOT":-2.1e-6,"MEAN_MOTION_DDOT":0},{"OBJECT_NAME":"HULIANWANG DIGUI-114","OBJECT_ID":"2025-287A","EPOCH":"2026-03-05T06:19:06.436416","MEAN_MOTION":13.24415742,"ECCENTRICITY":0.00019708,"INCLINATION":86.4974,"RA_OF_ASC_NODE":317.5051,"ARG_OF_PERICENTER":80.5698,"MEAN_ANOMALY":279.5659,"EPHEMERIS_TYPE":0,"CLASSIFICATION_TYPE":"U","NORAD_CAT_ID":66953,"ELEMENT_SET_NO":999,"REV_AT_EPOCH":1158,"BSTAR":0.0002192951,"MEAN_MOTION_DOT":1.09e-6,"MEAN_MOTION_DDOT":0},{"OBJECT_NAME":"HULIANWANG DIGUI-115","OBJECT_ID":"2025-287B","EPOCH":"2026-03-05T06:08:12.206976","MEAN_MOTION":13.24415802,"ECCENTRICITY":0.00020545,"INCLINATION":86.499,"RA_OF_ASC_NODE":317.5167,"ARG_OF_PERICENTER":79.9948,"MEAN_ANOMALY":280.1418,"EPHEMERIS_TYPE":0,"CLASSIFICATION_TYPE":"U","NORAD_CAT_ID":66954,"ELEMENT_SET_NO":999,"REV_AT_EPOCH":1158,"BSTAR":0.00020845037,"MEAN_MOTION_DOT":1.04e-6,"MEAN_MOTION_DDOT":0},{"OBJECT_NAME":"HULIANWANG DIGUI-116","OBJECT_ID":"2025-287C","EPOCH":"2026-03-05T05:57:20.160864","MEAN_MOTION":13.24415883,"ECCENTRICITY":0.00020605,"INCLINATION":86.493,"RA_OF_ASC_NODE":317.4558,"ARG_OF_PERICENTER":79.9767,"MEAN_ANOMALY":280.16,"EPHEMERIS_TYPE":0,"CLASSIFICATION_TYPE":"U","NORAD_CAT_ID":66955,"ELEMENT_SET_NO":999,"REV_AT_EPOCH":1158,"BSTAR":0.00018565027,"MEAN_MOTION_DOT":9.4e-7,"MEAN_MOTION_DDOT":0},{"OBJECT_NAME":"HULIANWANG DIGUI-117","OBJECT_ID":"2025-287D","EPOCH":"2026-03-05T05:46:30.848448","MEAN_MOTION":13.24414029,"ECCENTRICITY":0.00012683,"INCLINATION":86.499,"RA_OF_ASC_NODE":317.51,"ARG_OF_PERICENTER":21.3858,"MEAN_ANOMALY":338.7329,"EPHEMERIS_TYPE":0,"CLASSIFICATION_TYPE":"U","NORAD_CAT_ID":66956,"ELEMENT_SET_NO":999,"REV_AT_EPOCH":1158,"BSTAR":0.00017384115,"MEAN_MOTION_DOT":8.9e-7,"MEAN_MOTION_DDOT":0},{"OBJECT_NAME":"HULIANWANG DIGUI-118","OBJECT_ID":"2025-287E","EPOCH":"2026-03-05T05:35:36.718368","MEAN_MOTION":13.24415371,"ECCENTRICITY":0.00020396,"INCLINATION":86.4967,"RA_OF_ASC_NODE":317.4839,"ARG_OF_PERICENTER":79.5602,"MEAN_ANOMALY":280.5761,"EPHEMERIS_TYPE":0,"CLASSIFICATION_TYPE":"U","NORAD_CAT_ID":66957,"ELEMENT_SET_NO":999,"REV_AT_EPOCH":1158,"BSTAR":0.0001625118,"MEAN_MOTION_DOT":8.4e-7,"MEAN_MOTION_DDOT":0},{"OBJECT_NAME":"HULIANWANG DIGUI-119","OBJECT_ID":"2025-295A","EPOCH":"2026-03-04T20:23:33.095904","MEAN_MOTION":13.49182432,"ECCENTRICITY":2.302e-5,"INCLINATION":50.0043,"RA_OF_ASC_NODE":40.984,"ARG_OF_PERICENTER":333.6345,"MEAN_ANOMALY":26.4524,"EPHEMERIS_TYPE":0,"CLASSIFICATION_TYPE":"U","NORAD_CAT_ID":67059,"ELEMENT_SET_NO":999,"REV_AT_EPOCH":1160,"BSTAR":0.00010811199,"MEAN_MOTION_DOT":-6.3e-7,"MEAN_MOTION_DDOT":0},{"OBJECT_NAME":"HULIANWANG DIGUI-120","OBJECT_ID":"2025-295B","EPOCH":"2026-03-04T00:31:35.165856","MEAN_MOTION":13.50312018,"ECCENTRICITY":5.325e-5,"INCLINATION":50.0045,"RA_OF_ASC_NODE":43.9402,"ARG_OF_PERICENTER":232.7248,"MEAN_ANOMALY":127.3584,"EPHEMERIS_TYPE":0,"CLASSIFICATION_TYPE":"U","NORAD_CAT_ID":67060,"ELEMENT_SET_NO":999,"REV_AT_EPOCH":1149,"BSTAR":0.00010562605,"MEAN_MOTION_DOT":-6.4e-7,"MEAN_MOTION_DDOT":0},{"OBJECT_NAME":"HULIANWANG DIGUI-121","OBJECT_ID":"2025-295C","EPOCH":"2026-03-04T11:21:13.535712","MEAN_MOTION":13.49344229,"ECCENTRICITY":5.135e-5,"INCLINATION":50.001,"RA_OF_ASC_NODE":42.2948,"ARG_OF_PERICENTER":230.7953,"MEAN_ANOMALY":129.2882,"EPHEMERIS_TYPE":0,"CLASSIFICATION_TYPE":"U","NORAD_CAT_ID":67061,"ELEMENT_SET_NO":999,"REV_AT_EPOCH":1155,"BSTAR":0.00010685458,"MEAN_MOTION_DOT":-6.3e-7,"MEAN_MOTION_DDOT":0},{"OBJECT_NAME":"HULIANWANG DIGUI-122","OBJECT_ID":"2025-295D","EPOCH":"2026-03-04T16:21:12.712032","MEAN_MOTION":13.49722832,"ECCENTRICITY":4.936e-5,"INCLINATION":50.0036,"RA_OF_ASC_NODE":41.4278,"ARG_OF_PERICENTER":322.7161,"MEAN_ANOMALY":37.3686,"EPHEMERIS_TYPE":0,"CLASSIFICATION_TYPE":"U","NORAD_CAT_ID":67062,"ELEMENT_SET_NO":999,"REV_AT_EPOCH":1158,"BSTAR":0.00010689508,"MEAN_MOTION_DOT":-6.3e-7,"MEAN_MOTION_DDOT":0},{"OBJECT_NAME":"HULIANWANG DIGUI-123","OBJECT_ID":"2025-295E","EPOCH":"2026-03-04T19:44:16.959264","MEAN_MOTION":13.49679503,"ECCENTRICITY":3.248e-5,"INCLINATION":50.0046,"RA_OF_ASC_NODE":40.8418,"ARG_OF_PERICENTER":308.9409,"MEAN_ANOMALY":51.1443,"EPHEMERIS_TYPE":0,"CLASSIFICATION_TYPE":"U","NORAD_CAT_ID":67063,"ELEMENT_SET_NO":999,"REV_AT_EPOCH":1160,"BSTAR":0.00013870059,"MEAN_MOTION_DOT":-4.3e-7,"MEAN_MOTION_DDOT":0},{"OBJECT_NAME":"HULIANWANG DIGUI-124","OBJECT_ID":"2025-295F","EPOCH":"2026-03-04T10:42:21.731904","MEAN_MOTION":13.49900205,"ECCENTRICITY":0.000142,"INCLINATION":49.9987,"RA_OF_ASC_NODE":42.1543,"ARG_OF_PERICENTER":1.0031,"MEAN_ANOMALY":359.0853,"EPHEMERIS_TYPE":0,"CLASSIFICATION_TYPE":"U","NORAD_CAT_ID":67064,"ELEMENT_SET_NO":999,"REV_AT_EPOCH":1155,"BSTAR":0.00011056307,"MEAN_MOTION_DOT":-6.1e-7,"MEAN_MOTION_DDOT":0},{"OBJECT_NAME":"HULIANWANG DIGUI-125","OBJECT_ID":"2025-295G","EPOCH":"2026-03-04T08:46:15.251520","MEAN_MOTION":13.50013531,"ECCENTRICITY":0.00019898,"INCLINATION":50.0019,"RA_OF_ASC_NODE":42.3803,"ARG_OF_PERICENTER":28.9203,"MEAN_ANOMALY":331.1788,"EPHEMERIS_TYPE":0,"CLASSIFICATION_TYPE":"U","NORAD_CAT_ID":67065,"ELEMENT_SET_NO":999,"REV_AT_EPOCH":1154,"BSTAR":0.00011014756,"MEAN_MOTION_DOT":-6.1e-7,"MEAN_MOTION_DDOT":0},{"OBJECT_NAME":"HULIANWANG DIGUI-126","OBJECT_ID":"2025-295H","EPOCH":"2026-03-04T19:15:26.159040","MEAN_MOTION":13.49977054,"ECCENTRICITY":8.357e-5,"INCLINATION":50.0001,"RA_OF_ASC_NODE":40.6902,"ARG_OF_PERICENTER":53.3551,"MEAN_ANOMALY":306.7407,"EPHEMERIS_TYPE":0,"CLASSIFICATION_TYPE":"U","NORAD_CAT_ID":67066,"ELEMENT_SET_NO":999,"REV_AT_EPOCH":1160,"BSTAR":7.6125588e-5,"MEAN_MOTION_DOT":-8.3e-7,"MEAN_MOTION_DDOT":0},{"OBJECT_NAME":"HULIANWANG DIGUI-127","OBJECT_ID":"2025-295J","EPOCH":"2026-03-04T06:34:08.707296","MEAN_MOTION":13.49908062,"ECCENTRICITY":0.00013081,"INCLINATION":50.0053,"RA_OF_ASC_NODE":42.5703,"ARG_OF_PERICENTER":40.573,"MEAN_ANOMALY":319.5249,"EPHEMERIS_TYPE":0,"CLASSIFICATION_TYPE":"U","NORAD_CAT_ID":67067,"ELEMENT_SET_NO":999,"REV_AT_EPOCH":1153,"BSTAR":-0.00029114652,"MEAN_MOTION_DOT":-3.17e-6,"MEAN_MOTION_DDOT":0},{"OBJECT_NAME":"HULIANWANG DIGUI-128","OBJECT_ID":"2025-311A","EPOCH":"2026-03-05T03:27:34.354368","MEAN_MOTION":13.34168672,"ECCENTRICITY":9.559e-5,"INCLINATION":50.0066,"RA_OF_ASC_NODE":128.7172,"ARG_OF_PERICENTER":8.7924,"MEAN_ANOMALY":351.2967,"EPHEMERIS_TYPE":0,"CLASSIFICATION_TYPE":"U","NORAD_CAT_ID":67236,"ELEMENT_SET_NO":999,"REV_AT_EPOCH":950,"BSTAR":0.0001627108,"MEAN_MOTION_DOT":-4.4e-7,"MEAN_MOTION_DDOT":0}]
